[{"OBJECT_NAME":"GAOFEN-9 05","OBJECT_ID":"2020-058A","EPOCH":"2026-03-10T00:01:50.876256","MEAN_MOTION":15.30293976,"ECCENTRICITY":0.0010522,"INCLINATION":97.2228,"RA_OF_ASC_NODE":111.963,"ARG_OF_PERICENTER":91.0204,"MEAN_ANOMALY":269.2242,"EPHEMERIS_TYPE":0,"CLASSIFICATION_TYPE":"U","NORAD_CAT_ID":46232,"ELEMENT_SET_NO":999,"REV_AT_EPOCH":30843,"BSTAR":0.00025120304,"MEAN_MOTION_DOT":7.299e-5,"MEAN_MOTION_DDOT":0},{"OBJECT_NAME":"STARLINK-3680","OBJECT_ID":"2022-025P","EPOCH":"2026-03-09T06:42:53.220960","MEAN_MOTION":15.30084933,"ECCENTRICITY":0.00015454,"INCLINATION":53.1604,"RA_OF_ASC_NODE":26.2267,"ARG_OF_PERICENTER":107.1319,"MEAN_ANOMALY":252.9851,"EPHEMERIS_TYPE":0,"CLASSIFICATION_TYPE":"U","NORAD_CAT_ID":51969,"ELEMENT_SET_NO":999,"REV_AT_EPOCH":22094,"BSTAR":0.001642036,"MEAN_MOTION_DOT":0.00048417,"MEAN_MOTION_DDOT":0}]
